[{"OBJECT_NAME":"ENSHI XIDA SHANQUAN","OBJECT_ID":"2025-160A","EPOCH":"2026-03-09T22:31:41.412864","MEAN_MOTION":15.35264812,"ECCENTRICITY":0.00086596,"INCLINATION":97.3677,"RA_OF_ASC_NODE":146.4003,"ARG_OF_PERICENTER":192.7492,"MEAN_ANOMALY":167.3534,"EPHEMERIS_TYPE":0,"CLASSIFICATION_TYPE":"U","NORAD_CAT_ID":64962,"ELEMENT_SET_NO":999,"REV_AT_EPOCH":3415,"BSTAR":0.0011064868,"MEAN_MOTION_DOT":0.00037992,"MEAN_MOTION_DDOT":0},{"OBJECT_NAME":"STARLINK-36256","OBJECT_ID":"2025-299B","EPOCH":"2026-03-09T17:49:57.137952","MEAN_MOTION":15.34100812,"ECCENTRICITY":0.00015407,"INCLINATION":42.9993,"RA_OF_ASC_NODE":168.7662,"ARG_OF_PERICENTER":312.3927,"MEAN_ANOMALY":47.6797,"EPHEMERIS_TYPE":0,"CLASSIFICATION_TYPE":"U","NORAD_CAT_ID":67103,"ELEMENT_SET_NO":999,"REV_AT_EPOCH":1312,"BSTAR":-0.0091362377,"MEAN_MOTION_DOT":-0.00296455,"MEAN_MOTION_DDOT":0}]
